{
  "type": "FeatureCollection",
  "features": [
    {
      "type": "Feature",
      "properties": {
        "norad_id": 24946,
        "name": "IRIDIUM 33",
        "group": "iridium-33-debris",
        "lat": -11.873588692762166,
        "lon": 71.4262044341387,
        "alt_km": 780.9904161963423,
        "timestamp": "2025-12-03T06:58:43.626243+00:00",
        "meta_object_name": "IRIDIUM 33",
        "meta_object_id": "1997-051C",
        "meta_epoch": "2025-12-02T19:19:10.562304",
        "meta_mean_motion": 14.35025235,
        "meta_eccentricity": 0.000608,
        "meta_inclination": 86.3871,
        "meta_ra_of_asc_node": 72.3912,
        "meta_arg_of_pericenter": 238.9284,
        "meta_mean_anomaly": 121.1316,
        "meta_ephemeris_type": 0,
        "meta_classification_type": "U",
        "meta_norad_cat_id": 24946,
        "meta_element_set_no": 999,
        "meta_rev_at_epoch": 47692,
        "meta_bstar": 0.00016704,
        "meta_mean_motion_dot": 4.95e-06,
        "meta_mean_motion_ddot": 0,
        "tle_line1": "1 24946U 97051C   25336.80498336  .00000495  00000+0  16704-3 0  9995",
        "tle_line2": "2 24946  86.3871  72.3912 0006080 238.9284 121.1316 14.35025235476927"
      },
      "geometry": {
        "type": "Point",
        "coordinates": [
          71.4262044341387,
          -11.873588692762166
        ]
      }
    },
    {
      "type": "Feature",
      "properties": {
        "norad_id": 33773,
        "name": "IRIDIUM 33 DEB",
        "group": "iridium-33-debris",
        "lat": 26.11279738527047,
        "lon": 66.36048076022516,
        "alt_km": 754.0491480604569,
        "timestamp": "2025-12-03T06:58:43.626288+00:00",
        "meta_object_name": "IRIDIUM 33 DEB",
        "meta_object_id": "1997-051L",
        "meta_epoch": "2025-12-02T19:12:34.458048",
        "meta_mean_motion": 14.43219569,
        "meta_eccentricity": 0.0011431,
        "meta_inclination": 86.4014,
        "meta_ra_of_asc_node": 64.8005,
        "meta_arg_of_pericenter": 177.1469,
        "meta_mean_anomaly": 182.9799,
        "meta_ephemeris_type": 0,
        "meta_classification_type": "U",
        "meta_norad_cat_id": 33773,
        "meta_element_set_no": 999,
        "meta_rev_at_epoch": 88204,
        "meta_bstar": 0.00045844,
        "meta_mean_motion_dot": 1.562e-05,
        "meta_mean_motion_ddot": 0,
        "tle_line1": "1 33773U 97051L   25336.80039882  .00001562  00000+0  45844-3 0  9993",
        "tle_line2": "2 33773  86.4014  64.8005 0011431 177.1469 182.9799 14.43219569882047"
      },
      "geometry": {
        "type": "Point",
        "coordinates": [
          66.36048076022516,
          26.11279738527047
        ]
      }
    },
    {
      "type": "Feature",
      "properties": {
        "norad_id": 33775,
        "name": "IRIDIUM 33 DEB",
        "group": "iridium-33-debris",
        "lat": 9.324429233704056,
        "lon": -127.01136451662185,
        "alt_km": 746.4434328654397,
        "timestamp": "2025-12-03T06:58:43.626305+00:00",
        "meta_object_name": "IRIDIUM 33 DEB",
        "meta_object_id": "1997-051N",
        "meta_epoch": "2025-12-02T17:25:17.799744",
        "meta_mean_motion": 14.41431492,
        "meta_eccentricity": 0.0013145,
        "meta_inclination": 86.3644,
        "meta_ra_of_asc_node": 53.8278,
        "meta_arg_of_pericenter": 186.595,
        "meta_mean_anomaly": 294.584,
        "meta_ephemeris_type": 0,
        "meta_classification_type": "U",
        "meta_norad_cat_id": 33775,
        "meta_element_set_no": 999,
        "meta_rev_at_epoch": 87996,
        "meta_bstar": 0.00046193,
        "meta_mean_motion_dot": 1.518e-05,
        "meta_mean_motion_ddot": 0,
        "tle_line1": "1 33775U 97051N   25336.72590046  .00001518  00000+0  46193-3 0  9999",
        "tle_line2": "2 33775  86.3644  53.8278 0013145 186.5950 294.5840 14.41431492879963"
      },
      "geometry": {
        "type": "Point",
        "coordinates": [
          -127.01136451662185,
          9.324429233704056
        ]
      }
    },
    {
      "type": "Feature",
      "properties": {
        "norad_id": 33776,
        "name": "IRIDIUM 33 DEB",
        "group": "iridium-33-debris",
        "lat": 29.940814908501846,
        "lon": -97.3323905197737,
        "alt_km": 760.2613326652936,
        "timestamp": "2025-12-03T06:58:43.626319+00:00",
        "meta_object_name": "IRIDIUM 33 DEB",
        "meta_object_id": "1997-051P",
        "meta_epoch": "2025-12-02T19:07:05.354400",
        "meta_mean_motion": 14.38202771,
        "meta_eccentricity": 0.0013307,
        "meta_inclination": 86.4037,
        "meta_ra_of_asc_node": 84.951,
        "meta_arg_of_pericenter": 224.8807,
        "meta_mean_anomaly": 248.0842,
        "meta_ephemeris_type": 0,
        "meta_classification_type": "U",
        "meta_norad_cat_id": 33776,
        "meta_element_set_no": 999,
        "meta_rev_at_epoch": 87939,
        "meta_bstar": 0.00041731,
        "meta_mean_motion_dot": 1.287e-05,
        "meta_mean_motion_ddot": 0,
        "tle_line1": "1 33776U 97051P   25336.79658975  .00001287  00000+0  41731-3 0  9999",
        "tle_line2": "2 33776  86.4037  84.9510 0013307 224.8807 248.0842 14.38202771879397"
      },
      "geometry": {
        "type": "Point",
        "coordinates": [
          -97.3323905197737,
          29.940814908501846
        ]
      }
    },
    {
      "type": "Feature",
      "properties": {
        "norad_id": 33777,
        "name": "IRIDIUM 33 DEB",
        "group": "iridium-33-debris",
        "lat": 68.55489205031493,
        "lon": 48.58742735376712,
        "alt_km": 703.7728253941968,
        "timestamp": "2025-12-03T06:58:43.626348+00:00",
        "meta_object_name": "IRIDIUM 33 DEB",
        "meta_object_id": "1997-051Q",
        "meta_epoch": "2025-12-02T17:27:48.977280",
        "meta_mean_motion": 14.55486126,
        "meta_eccentricity": 0.0005175,
        "meta_inclination": 86.3801,
        "meta_ra_of_asc_node": 39.5578,
        "meta_arg_of_pericenter": 296.1444,
        "meta_mean_anomaly": 63.9231,
        "meta_ephemeris_type": 0,
        "meta_classification_type": "U",
        "meta_norad_cat_id": 33777,
        "meta_element_set_no": 999,
        "meta_rev_at_epoch": 88388,
        "meta_bstar": 0.0012601,
        "meta_mean_motion_dot": 5.503e-05,
        "meta_mean_motion_ddot": 0,
        "tle_line1": "1 33777U 97051Q   25336.72765020  .00005503  00000+0  12601-2 0  9991",
        "tle_line2": "2 33777  86.3801  39.5578 0005175 296.1444  63.9231 14.55486126883881"
      },
      "geometry": {
        "type": "Point",
        "coordinates": [
          48.58742735376712,
          68.55489205031493
        ]
      }
    },
    {
      "type": "Feature",
      "properties": {
        "norad_id": 33850,
        "name": "IRIDIUM 33 DEB",
        "group": "iridium-33-debris",
        "lat": 51.47316736960049,
        "lon": -150.36578970399447,
        "alt_km": 743.1818911265218,
        "timestamp": "2025-12-03T06:58:43.626362+00:00",
        "meta_object_name": "IRIDIUM 33 DEB",
        "meta_object_id": "1997-051T",
        "meta_epoch": "2025-12-02T17:38:50.477280",
        "meta_mean_motion": 14.42110015,
        "meta_eccentricity": 0.0011152,
        "meta_inclination": 86.3425,
        "meta_ra_of_asc_node": 34.4808,
        "meta_arg_of_pericenter": 192.7319,
        "meta_mean_anomaly": 293.717,
        "meta_ephemeris_type": 0,
        "meta_classification_type": "U",
        "meta_norad_cat_id": 33850,
        "meta_element_set_no": 999,
        "meta_rev_at_epoch": 88008,
        "meta_bstar": 0.00056376,
        "meta_mean_motion_dot": 1.873e-05,
        "meta_mean_motion_ddot": 0,
        "tle_line1": "1 33850U 97051T   25336.73530645  .00001873  00000+0  56376-3 0  9991",
        "tle_line2": "2 33850  86.3425  34.4808 0011152 192.7319 293.7170 14.42110015880080"
      },
      "geometry": {
        "type": "Point",
        "coordinates": [
          -150.36578970399447,
          51.47316736960049
        ]
      }
    },
    {
      "type": "Feature",
      "properties": {
        "norad_id": 33853,
        "name": "IRIDIUM 33 DEB",
        "group": "iridium-33-debris",
        "lat": 6.364827736065934,
        "lon": 173.50864590514954,
        "alt_km": 900.4717252032824,
        "timestamp": "2025-12-03T06:58:43.626375+00:00",
        "meta_object_name": "IRIDIUM 33 DEB",
        "meta_object_id": "1997-051W",
        "meta_epoch": "2025-12-02T11:59:57.631776",
        "meta_mean_motion": 13.98950763,
        "meta_eccentricity": 0.02068419,
        "meta_inclination": 86.0006,
        "meta_ra_of_asc_node": 354.3022,
        "meta_arg_of_pericenter": 267.47,
        "meta_mean_anomaly": 248.1232,
        "meta_ephemeris_type": 0,
        "meta_classification_type": "U",
        "meta_norad_cat_id": 33853,
        "meta_element_set_no": 999,
        "meta_rev_at_epoch": 85202,
        "meta_bstar": 0.0027198294,
        "meta_mean_motion_dot": 4.731e-05,
        "meta_mean_motion_ddot": 0,
        "tle_line1": "1 33853U 97051W   25336.49997259  .00004731  00000+0  27198-2 0  9990",
        "tle_line2": "2 33853  86.0006 354.3022 0206841 267.4700 248.1232 13.98950763852020"
      },
      "geometry": {
        "type": "Point",
        "coordinates": [
          173.50864590514954,
          6.364827736065934
        ]
      }
    }
  ]
}